ONEWEB-0228             
1 48780U 21045P   24050.96153745  .00000203  00000+0  50580-3 0  9995
2 48780  87.8941  68.0059 0002010  89.3229 270.8132 13.15548797132807
